ISS (ZARYA)             
1 25544U 98067A   26003.79081789  .00013445  00000+0  25095-3 0  9990
2 25544  51.6327  33.2893 0007553 337.0786  22.9864 15.49074434546274
CSS (TIANHE)            
1 48274U 21035A   26003.93445481  .00023203  00000+0  27991-3 0  9995
2 48274  41.4655 241.8722 0010554 214.7507 145.2643 15.60151347267495
ISS (NAUKA)             
1 49044U 21066A   26003.79081789  .00013445  00000+0  25095-3 0  9996
2 49044  51.6327  33.2893 0007553 337.0786  22.9864 15.49074434230444
FREGAT DEB              
1 49271U 11037PF  26003.59107743  .00032011  00000+0  68161-1 0  9991
2 49271  51.6534 134.8381 0874859 271.7974  78.3006 12.34976008204634
CSS (WENTIAN)           
1 53239U 22085A   26003.93445481  .00023203  00000+0  27991-3 0  9998
2 53239  41.4655 241.8722 0010554 214.7507 145.2643 15.60151347173847
CSS (MENGTIAN)          
1 54216U 22143A   26003.93445481  .00023203  00000+0  27991-3 0  9999
2 54216  41.4655 241.8722 0010554 214.7507 145.2643 15.60151347158644
SHENZHOU-20 (SZ-20)     
1 63632U 25082A   26003.93445481  .00023203  00000+0  27991-3 0  9996
2 63632  41.4655 241.8722 0010554 214.7507 145.2643 15.60151347255307
PROGRESS-MS 31          
1 64751U 25146A   26003.79081789  .00013445  00000+0  25095-3 0  9991
2 64751  51.6327  33.2893 0007553 337.0786  22.9864 15.49074434  6751
TIANZHOU-9              
1 64786U 25149A   26003.93445481  .00023203  00000+0  27991-3 0  9991
2 64786  41.4655 241.8722 0010554 214.7507 145.2643 15.60151347255308
CREW DRAGON 11          
1 65077U 25166A   26003.79081789  .00013445  00000+0  25095-3 0  9995
2 65077  51.6327  33.2893 0007553 337.0786  22.9864 15.49074434  2142
DRAGON CRS-33           
1 65304U 25186A   26003.79081789  .00013445  00000+0  25095-3 0  9990
2 65304  51.6327  33.2893 0007553 337.0786  22.9864 15.49074434   110
PROGRESS-MS 32          
1 65586U 25204A   26003.79081789  .00013445  00000+0  25095-3 0  9993
2 65586  51.6327  33.2893 0007553 337.0786  22.9864 15.49074434   279
