CCSDS_OMM_VERS = 2.0
CREATION_DATE  = 
ORIGINATOR     = 

OBJECT_NAME    = ISS (ZARYA)
OBJECT_ID      = 1998-067A
CENTER_NAME    = EARTH
REF_FRAME      = TEME
TIME_SYSTEM    = UTC
MEAN_ELEMENT_THEORY = SGP/SGP4

EPOCH          = 2026-01-03T18:58:46.665696
MEAN_MOTION    = 15.49074434
ECCENTRICITY   = .00075535
INCLINATION    = 51.6327
RA_OF_ASC_NODE = 33.2893
ARG_OF_PERICENTER = 337.0786
MEAN_ANOMALY   = 22.9864

EPHEMERIS_TYPE = 0
CLASSIFICATION_TYPE = U
NORAD_CAT_ID   = 25544
ELEMENT_SET_NO = 999
REV_AT_EPOCH   = 54627
BSTAR          = .25095454E-3
MEAN_MOTION_DOT = .13445E-3
MEAN_MOTION_DDOT = 0

CCSDS_OMM_VERS = 2.0
CREATION_DATE  = 
ORIGINATOR     = 

OBJECT_NAME    = CSS (TIANHE)
OBJECT_ID      = 2021-035A
CENTER_NAME    = EARTH
REF_FRAME      = TEME
TIME_SYSTEM    = UTC
MEAN_ELEMENT_THEORY = SGP/SGP4

EPOCH          = 2026-01-03T22:25:36.895584
MEAN_MOTION    = 15.60151347
ECCENTRICITY   = .00105545
INCLINATION    = 41.4655
RA_OF_ASC_NODE = 241.8722
ARG_OF_PERICENTER = 214.7507
MEAN_ANOMALY   = 145.2643

EPHEMERIS_TYPE = 0
CLASSIFICATION_TYPE = U
NORAD_CAT_ID   = 48274
ELEMENT_SET_NO = 999
REV_AT_EPOCH   = 26749
BSTAR          = .27990901E-3
MEAN_MOTION_DOT = .23203E-3
MEAN_MOTION_DDOT = 0

CCSDS_OMM_VERS = 2.0
CREATION_DATE  = 
ORIGINATOR     = 

OBJECT_NAME    = ISS (NAUKA)
OBJECT_ID      = 2021-066A
CENTER_NAME    = EARTH
REF_FRAME      = TEME
TIME_SYSTEM    = UTC
MEAN_ELEMENT_THEORY = SGP/SGP4

EPOCH          = 2026-01-03T18:58:46.665696
MEAN_MOTION    = 15.49074434
ECCENTRICITY   = .00075535
INCLINATION    = 51.6327
RA_OF_ASC_NODE = 33.2893
ARG_OF_PERICENTER = 337.0786
MEAN_ANOMALY   = 22.9864

EPHEMERIS_TYPE = 0
CLASSIFICATION_TYPE = U
NORAD_CAT_ID   = 49044
ELEMENT_SET_NO = 999
REV_AT_EPOCH   = 23044
BSTAR          = .25095454E-3
MEAN_MOTION_DOT = .13445E-3
MEAN_MOTION_DDOT = 0

CCSDS_OMM_VERS = 2.0
CREATION_DATE  = 
ORIGINATOR     = 

OBJECT_NAME    = FREGAT DEB
OBJECT_ID      = 2011-037PF
CENTER_NAME    = EARTH
REF_FRAME      = TEME
TIME_SYSTEM    = UTC
MEAN_ELEMENT_THEORY = SGP/SGP4

EPOCH          = 2026-01-03T14:11:09.089952
MEAN_MOTION    = 12.34976008
ECCENTRICITY   = .08748597
INCLINATION    = 51.6534
RA_OF_ASC_NODE = 134.8381
ARG_OF_PERICENTER = 271.7974
MEAN_ANOMALY   = 78.3006

EPHEMERIS_TYPE = 0
CLASSIFICATION_TYPE = U
NORAD_CAT_ID   = 49271
ELEMENT_SET_NO = 999
REV_AT_EPOCH   = 20463
BSTAR          = .68161387E-1
MEAN_MOTION_DOT = .32011E-3
MEAN_MOTION_DDOT = 0

CCSDS_OMM_VERS = 2.0
CREATION_DATE  = 
ORIGINATOR     = 

OBJECT_NAME    = CSS (WENTIAN)
OBJECT_ID      = 2022-085A
CENTER_NAME    = EARTH
REF_FRAME      = TEME
TIME_SYSTEM    = UTC
MEAN_ELEMENT_THEORY = SGP/SGP4

EPOCH          = 2026-01-03T22:25:36.895584
MEAN_MOTION    = 15.60151347
ECCENTRICITY   = .00105545
INCLINATION    = 41.4655
RA_OF_ASC_NODE = 241.8722
ARG_OF_PERICENTER = 214.7507
MEAN_ANOMALY   = 145.2643

EPHEMERIS_TYPE = 0
CLASSIFICATION_TYPE = U
NORAD_CAT_ID   = 53239
ELEMENT_SET_NO = 999
REV_AT_EPOCH   = 17384
BSTAR          = .27990901E-3
MEAN_MOTION_DOT = .23203E-3
MEAN_MOTION_DDOT = 0

CCSDS_OMM_VERS = 2.0
CREATION_DATE  = 
ORIGINATOR     = 

OBJECT_NAME    = CSS (MENGTIAN)
OBJECT_ID      = 2022-143A
CENTER_NAME    = EARTH
REF_FRAME      = TEME
TIME_SYSTEM    = UTC
MEAN_ELEMENT_THEORY = SGP/SGP4

EPOCH          = 2026-01-03T22:25:36.895584
MEAN_MOTION    = 15.60151347
ECCENTRICITY   = .00105545
INCLINATION    = 41.4655
RA_OF_ASC_NODE = 241.8722
ARG_OF_PERICENTER = 214.7507
MEAN_ANOMALY   = 145.2643

EPHEMERIS_TYPE = 0
CLASSIFICATION_TYPE = U
NORAD_CAT_ID   = 54216
ELEMENT_SET_NO = 999
REV_AT_EPOCH   = 15864
BSTAR          = .27990901E-3
MEAN_MOTION_DOT = .23203E-3
MEAN_MOTION_DDOT = 0

CCSDS_OMM_VERS = 2.0
CREATION_DATE  = 
ORIGINATOR     = 

OBJECT_NAME    = SHENZHOU-20 (SZ-20)
OBJECT_ID      = 2025-082A
CENTER_NAME    = EARTH
REF_FRAME      = TEME
TIME_SYSTEM    = UTC
MEAN_ELEMENT_THEORY = SGP/SGP4

EPOCH          = 2026-01-03T22:25:36.895584
MEAN_MOTION    = 15.60151347
ECCENTRICITY   = .00105545
INCLINATION    = 41.4655
RA_OF_ASC_NODE = 241.8722
ARG_OF_PERICENTER = 214.7507
MEAN_ANOMALY   = 145.2643

EPHEMERIS_TYPE = 0
CLASSIFICATION_TYPE = U
NORAD_CAT_ID   = 63632
ELEMENT_SET_NO = 999
REV_AT_EPOCH   = 25530
BSTAR          = .27990901E-3
MEAN_MOTION_DOT = .23203E-3
MEAN_MOTION_DDOT = 0

CCSDS_OMM_VERS = 2.0
CREATION_DATE  = 
ORIGINATOR     = 

OBJECT_NAME    = PROGRESS-MS 31
OBJECT_ID      = 2025-146A
CENTER_NAME    = EARTH
REF_FRAME      = TEME
TIME_SYSTEM    = UTC
MEAN_ELEMENT_THEORY = SGP/SGP4

EPOCH          = 2026-01-03T18:58:46.665696
MEAN_MOTION    = 15.49074434
ECCENTRICITY   = .00075535
INCLINATION    = 51.6327
RA_OF_ASC_NODE = 33.2893
ARG_OF_PERICENTER = 337.0786
MEAN_ANOMALY   = 22.9864

EPHEMERIS_TYPE = 0
CLASSIFICATION_TYPE = U
NORAD_CAT_ID   = 64751
ELEMENT_SET_NO = 999
REV_AT_EPOCH   = 675
BSTAR          = .25095454E-3
MEAN_MOTION_DOT = .13445E-3
MEAN_MOTION_DDOT = 0

CCSDS_OMM_VERS = 2.0
CREATION_DATE  = 
ORIGINATOR     = 

OBJECT_NAME    = TIANZHOU-9
OBJECT_ID      = 2025-149A
CENTER_NAME    = EARTH
REF_FRAME      = TEME
TIME_SYSTEM    = UTC
MEAN_ELEMENT_THEORY = SGP/SGP4

EPOCH          = 2026-01-03T22:25:36.895584
MEAN_MOTION    = 15.60151347
ECCENTRICITY   = .00105545
INCLINATION    = 41.4655
RA_OF_ASC_NODE = 241.8722
ARG_OF_PERICENTER = 214.7507
MEAN_ANOMALY   = 145.2643

EPHEMERIS_TYPE = 0
CLASSIFICATION_TYPE = U
NORAD_CAT_ID   = 64786
ELEMENT_SET_NO = 999
REV_AT_EPOCH   = 25530
BSTAR          = .27990901E-3
MEAN_MOTION_DOT = .23203E-3
MEAN_MOTION_DDOT = 0

CCSDS_OMM_VERS = 2.0
CREATION_DATE  = 
ORIGINATOR     = 

OBJECT_NAME    = CREW DRAGON 11
OBJECT_ID      = 2025-166A
CENTER_NAME    = EARTH
REF_FRAME      = TEME
TIME_SYSTEM    = UTC
MEAN_ELEMENT_THEORY = SGP/SGP4

EPOCH          = 2026-01-03T18:58:46.665696
MEAN_MOTION    = 15.49074434
ECCENTRICITY   = .00075535
INCLINATION    = 51.6327
RA_OF_ASC_NODE = 33.2893
ARG_OF_PERICENTER = 337.0786
MEAN_ANOMALY   = 22.9864

EPHEMERIS_TYPE = 0
CLASSIFICATION_TYPE = U
NORAD_CAT_ID   = 65077
ELEMENT_SET_NO = 999
REV_AT_EPOCH   = 214
BSTAR          = .25095454E-3
MEAN_MOTION_DOT = .13445E-3
MEAN_MOTION_DDOT = 0

CCSDS_OMM_VERS = 2.0
CREATION_DATE  = 
ORIGINATOR     = 

OBJECT_NAME    = DRAGON CRS-33
OBJECT_ID      = 2025-186A
CENTER_NAME    = EARTH
REF_FRAME      = TEME
TIME_SYSTEM    = UTC
MEAN_ELEMENT_THEORY = SGP/SGP4

EPOCH          = 2026-01-03T18:58:46.665696
MEAN_MOTION    = 15.49074434
ECCENTRICITY   = .00075535
INCLINATION    = 51.6327
RA_OF_ASC_NODE = 33.2893
ARG_OF_PERICENTER = 337.0786
MEAN_ANOMALY   = 22.9864

EPHEMERIS_TYPE = 0
CLASSIFICATION_TYPE = U
NORAD_CAT_ID   = 65304
ELEMENT_SET_NO = 999
REV_AT_EPOCH   = 11
BSTAR          = .25095454E-3
MEAN_MOTION_DOT = .13445E-3
MEAN_MOTION_DDOT = 0

CCSDS_OMM_VERS = 2.0
CREATION_DATE  = 
ORIGINATOR     = 

OBJECT_NAME    = PROGRESS-MS 32
OBJECT_ID      = 2025-204A
CENTER_NAME    = EARTH
REF_FRAME      = TEME
TIME_SYSTEM    = UTC
MEAN_ELEMENT_THEORY = SGP/SGP4

EPOCH          = 2026-01-03T18:58:46.665696
MEAN_MOTION    = 15.49074434
ECCENTRICITY   = .00075535
INCLINATION    = 51.6327
RA_OF_ASC_NODE = 33.2893
ARG_OF_PERICENTER = 337.0786
MEAN_ANOMALY   = 22.9864

EPHEMERIS_TYPE = 0
CLASSIFICATION_TYPE = U
NORAD_CAT_ID   = 65586
ELEMENT_SET_NO = 999
REV_AT_EPOCH   = 27
BSTAR          = .25095454E-3
MEAN_MOTION_DOT = .13445E-3
MEAN_MOTION_DDOT = 0

